*******************************************************************************
JPL/HORIZONS               3429 Chuvaev (1974 SU1)         2023-Sep-04 11:23:32
Rec #:    3429 (+COV) Soln.date: 2023-Aug-23_10:16:25   # obs: 3362 (1974-2023)
 
IAU76/J2000 helio. ecliptic osc. elements (au, days, deg., period=Julian yrs):
 
  EPOCH=  2457210.5 ! 2015-Jul-07.00 (TDB)         Residual RMS= .27037
   EC= .1890607351819633   QR= 1.897814989189373   TP= 2456642.3981094752
   OM= 180.6903168410332   W=  162.7657188843867   IN= 1.330281959292661
   A= 2.340267725987119    MA= 156.398287460475    ADIST= 2.782720462784865
   PER= 3.58019            N= .275299713           ANGMOM= .025841064
   DAN= 2.75389            DDN= 1.91146            L= 343.4604057
   B= .394103              MOID= .88933998         TP= 2013-Dec-15.8981094752
 
Asteroid physical parameters (km, seconds, rotational period in hours):
   GM= n.a.                RAD= 4.428              ROTPER= 3.365
   H= 14.11                G= .150                 B-V= n.a.
                           ALBEDO= .042            STYP= n.a.

ASTEROID comments: 
1: soln ref.= JPL#44, OCC=0
2: source=ORB
*******************************************************************************


*******************************************************************************
Ephemeris / API_USER Mon Sep  4 11:23:32 2023 Pasadena, USA      / Horizons
*******************************************************************************
Target body name: 3429 Chuvaev (1974 SU1)         {source: JPL#44}
Center body name: Solar System Barycenter (0)     {source: DE441}
Center-site name: BODY CENTER
*******************************************************************************
Start time      : A.D. 2023-Aug-12 00:00:00.0000 TDB
Stop  time      : A.D. 2023-Aug-13 00:00:00.0000 TDB
Step-size       : 2880 minutes
*******************************************************************************
Center geodetic : 0.0, 0.0, 0.0                   {E-lon(deg),Lat(deg),Alt(km)}
Center cylindric: 0.0, 0.0, 0.0                   {E-lon(deg),Dxy(km),Dz(km)}
Center radii    : (undefined)
Small perturbers: Yes                             {source: SB441-N16}
Output units    : KM-S
Calendar mode   : Mixed Julian/Gregorian
Output type     : GEOMETRIC cartesian states
Output format   : 2 (position and velocity)
Reference frame : Ecliptic of J2000.0
*******************************************************************************
Initial IAU76/J2000 heliocentric ecliptic osculating elements (au, days, deg.):
  EPOCH=  2457210.5 ! 2015-Jul-07.00 (TDB)         Residual RMS= .27037        
   EC= .1890607351819633   QR= 1.897814989189373   TP= 2456642.3981094752      
   OM= 180.6903168410332   W=  162.7657188843867   IN= 1.330281959292661       
  Equivalent ICRF heliocentric cartesian coordinates (au, au/d):
   X=-2.310524225570476E+00  Y= 1.392566474359465E+00  Z= 5.650228741698908E-01
  VX=-5.627187687274094E-03 VY=-6.970152717753752E-03 VZ=-2.833274836117204E-03
Asteroid physical parameters (km, seconds, rotational period in hours):        
   GM= n.a.                RAD= 4.428              ROTPER= 3.365               
   H= 14.11                G= .150                 B-V= n.a.                   
                           ALBEDO= .042            STYP= n.a.                  
*******************************************************************************
JDTDB
   X     Y     Z
   VX    VY    VZ
*******************************************************************************
$$SOE
2460168.500000000 = A.D. 2023-Aug-12 00:00:00.0000 TDB 
 X =-3.096035188369538E+08 Y =-2.247425304134294E+08 Z = 5.182169700338230E+06
 VX= 1.274275588897330E+01 VY=-1.243854816729967E+01 VZ= 2.925031878441890E-01
$$EOE
*******************************************************************************
 
TIME

  Barycentric Dynamical Time ("TDB" or T_eph) output was requested. This
continuous coordinate time is equivalent to the relativistic proper time
of a clock at rest in a reference frame co-moving with the solar system
barycenter but outside the system's gravity well. It is the independent
variable in the solar system relativistic equations of motion.

  TDB runs at a uniform rate of one SI second per second and is independent
of irregularities in Earth's rotation.
 
CALENDAR SYSTEM

  Mixed calendar mode was active such that calendar dates after AD 1582-Oct-15
(if any) are in the modern Gregorian system. Dates prior to 1582-Oct-5 (if any)
are in the Julian calendar system, which is automatically extended for dates
prior to its adoption on 45-Jan-1 BC.  The Julian calendar is useful for
matching historical dates. The Gregorian calendar more accurately corresponds
to the Earth's orbital motion and seasons. A "Gregorian-only" calendar mode is
available if such physical events are the primary interest.

REFERENCE FRAME AND COORDINATES

  Ecliptic at the standard reference epoch

    Reference epoch: J2000.0
    X-Y plane: adopted Earth orbital plane at the reference epoch
               Note: IAU76 obliquity of 84381.448 arcseconds wrt ICRF X-Y plane
    X-axis   : ICRF
    Z-axis   : perpendicular to the X-Y plane in the directional (+ or -) sense
               of Earth's north pole at the reference epoch.

  Symbol meaning:

    JDTDB    Julian Day Number, Barycentric Dynamical Time
      X      X-component of position vector (km)
      Y      Y-component of position vector (km)
      Z      Z-component of position vector (km)
      VX     X-component of velocity vector (km/sec)                           
      VY     Y-component of velocity vector (km/sec)                           
      VZ     Z-component of velocity vector (km/sec)                           

ABERRATIONS AND CORRECTIONS

 Geometric state vectors have NO corrections or aberrations applied.

Computations by ...

    Solar System Dynamics Group, Horizons On-Line Ephemeris System
    4800 Oak Grove Drive, Jet Propulsion Laboratory
    Pasadena, CA  91109   USA

    General site: https://ssd.jpl.nasa.gov/
    Mailing list: https://ssd.jpl.nasa.gov/email_list.html
    System news : https://ssd.jpl.nasa.gov/horizons/news.html
    User Guide  : https://ssd.jpl.nasa.gov/horizons/manual.html
    Connect     : browser        https://ssd.jpl.nasa.gov/horizons/app.html#/x
                  API            https://ssd-api.jpl.nasa.gov/doc/horizons.html
                  command-line   telnet ssd.jpl.nasa.gov 6775
                  e-mail/batch   https://ssd.jpl.nasa.gov/ftp/ssd/hrzn_batch.txt
                  scripts        https://ssd.jpl.nasa.gov/ftp/ssd/SCRIPTS
    Author      : Jon.D.Giorgini@jpl.nasa.gov
*******************************************************************************
